IONOSFERA-M 02
1 61736U 24199B   26052.11932836  .00000027  00000-0  31788-4 0  9996
2 61736  98.7350 286.3179 0000617  30.5790 329.5424 14.22734111114327
SITRO-AIS-16
1 61737U 24199C   26052.14101689  .00002310  00000-0  20564-3 0  9990
2 61737  97.3327 258.6838 0008166  95.3024 264.9131 14.96920015114459
SITRO-AIS-15
1 61738U 24199D   26052.12671733  .00003444  00000-0  30417-3 0  9998
2 61738  97.3330 258.7037 0008279  96.2781 263.9385 14.96942049114452
SITRO-AIS-21
1 61739U 24199E   26052.14050823  .00001322  00000-0  12652-3 0  9996
2 61739  97.3337 257.5251 0014276  93.3973 266.8882 14.94669502114418
SITRO-AIS-22
1 61740U 24199F   26052.15841206  .00002677  00000-0  24754-3 0  9992
2 61740  97.3326 257.6576 0013982  93.6546 266.6275 14.95264590114571
SITRO-AIS-24
1 61741U 24199G   26052.16083954  .00003236  00000-0  29698-3 0  9996
2 61741  97.3328 257.6622 0013820  94.5267 265.7534 14.95429526114544
SITRO-AIS-23
1 61742U 24199H   26052.14792005  .00002239  00000-0  20766-3 0  9998
2 61742  97.3329 257.6725 0013834  94.1494 266.1309 14.95294280114422
SITRO-AIS-13
1 61743U 24199J   26052.13543333  .00002715  00000-0  23925-3 0  9995
2 61743  97.3330 258.8345 0007949  96.0695 264.1433 14.97190586114624
CSTP-2.11
1 61744U 24199K   26052.13439816  .00025672  00000-0  53785-3 0  9990
2 61744  97.3170 285.9976 0008840 349.3370  10.7690 15.45367036116401
POLYTECH UNIVERSE-5 (RS70S)
1 61745U 24199L   26052.12585769  .00038413  00000-0  66785-3 0  9990
2 61745  97.3152 287.2086 0006744 355.7532   4.3662 15.50687701119637
COLIBRI-S (RS67S)
1 61746U 24199M   26052.14760899  .00019762  00000-0  45517-3 0  9998
2 61746  97.3180 285.2351 0009357 353.3309   6.7812 15.42600211119490
POLYTECH UNIVERSE-4 (RS71S)
1 61747U 24199N   26052.13162874  .00017639  00000-0  42647-3 0  9999
2 61747  97.3185 284.8052 0009741 351.5982   8.5100 15.41157919119461
SITRO-AIS-44
1 61748U 24199P   26052.05351277  .00046061  00000-0  71747-3 0  9992
2 61748  97.3107 287.8502 0006708 357.6810   2.4411 15.53726338119677
VIZARD-ION (RS68S)
1 61749U 24199Q   26052.15609291  .00029384  00000-0  57619-3 0  9997
2 61749  97.3175 286.5871 0008257 349.0698  11.0371 15.47279807119586
MTUSI-1
1 61750U 24199R   26052.15530545  .00030065  00000-0  59386-3 0  9995
2 61750  97.3139 286.0965 0008553 359.7781   0.3464 15.47060823119565
VLADIVOSTOK-1
1 61751U 24199S   26052.11094060  .00009630  00000-0  28960-3 0  9997
2 61751  97.3176 282.4643 0010584  12.6544 347.4963 15.34540683119325
SITRO-AIS-14
1 61752U 24199T   26052.11092082  .00003279  00000-0  28946-3 0  9997
2 61752  97.3318 258.7214 0007946  98.3797 261.8327 14.96991506117752
HORS-3 (RS81S)
1 61753U 24199U   26052.09521550  .00028486  00000-0  56134-3 0  9999
2 61753  97.3152 286.1764 0007588   1.0437 359.0828 15.47148365119569
HORS-4 (RS82S)
1 61754U 24199V   26052.12724066  .00035229  00000-0  63402-3 0  9990
2 61754  97.3129 286.8436 0007558 358.2833   1.8391 15.49717398119614
SITRO-AIS-43
1 61755U 24199W   26052.15458744  .00045912  00000-0  70867-3 0  9994
2 61755  97.3122 288.0229 0005706 355.6980   4.4223 15.53985921119694
SITRO-AIS-42
1 61756U 24199X   26052.13705118  .00048003  00000-0  73675-3 0  9997
2 61756  97.3116 288.0511 0006541 358.9121   1.2118 15.54127080119696
HORIZON (RS59S)
1 61757U 24199Y   26052.15227498  .00103746  00000-0  10151-2 0  9995
2 61757  97.3104 290.2721 0005067 346.7288  13.3837 15.65792304119830
SITRO-AIS-20
1 61758U 24199Z   26052.11302002  .00003512  00000-0  30771-3 0  9998
2 61758  97.3315 258.8496 0007766 100.0832 260.1268 14.97251250117762
SITRO-AIS-19
1 61759U 24199AA  26052.11457704  .00003481  00000-0  30518-3 0  9993
2 61759  97.3317 258.8500 0007754 101.0815 259.1280 14.97229549117768
SITRO-AIS-41
1 61760U 24199AB  26052.10583721  .00044042  00000-0  69523-3 0  9999
2 61760  97.3141 287.8193 0005789 355.9200   4.2005 15.53372944119676
NORBY-3
1 61761U 24199AC  26052.14017581  .00031504  00000-0  59405-3 0  9997
2 61761  97.3124 286.6782 0006706   0.3712 359.7542 15.48410150119601
ARCTICSAT-1 (RS74S)
1 61762U 24199AD  26052.12367173  .00083119  00000-0  93423-3 0  9998
2 61762  97.3120 289.8600 0005242 342.4068  17.7007 15.62323303119808
SIT-HSE
1 61763U 24199AE  26052.12212215  .00029250  00000-0  58861-3 0  9998
2 61763  97.3155 286.9152 0005830  10.4019 349.7350 15.46545421119615
SIT-2086
1 61764U 24199AF  26052.10014476  .00029872  00000-0  59682-3 0  9998
2 61764  97.3146 286.9278 0007073 341.4489  18.6502 15.46742387116454
RUZAEVKA-390 (RS44S)
1 61766U 24199AH  26052.14687156  .00433181  00000-0  14640-2 0  9991
2 61766  97.2974 293.1631 0001619  29.5979 330.5385 15.88936984116881
HOD-HOD
1 61768U 24199AK  26052.12168421  .00021739  00000-0  47142-3 0  9996
2 61768  97.3151 285.8744 0006480   8.9955 351.1408 15.44401905116393
KOSAR
1 61769U 24199AL  26052.09745571  .00025495  00000-0  50857-3 0  9990
2 61769  97.3145 286.4842 0006131  10.0427 350.0944 15.46825724116433
SITRO-AIS-48
1 61771U 24199AN  26052.13158909  .00034607  00000-0  65198-3 0  9990
2 61771  97.3115 285.9621 0009361   6.9897 353.1483 15.48392838116412
HYPERVIEW-1G (RS66S)
1 61772U 24199AP  26052.10826152  .00053678  00000-0  77901-3 0  9994
2 61772  97.3113 287.7752 0008816 355.6823   4.4354 15.55616651116528
SITRO-AIS-47
1 61773U 24199AQ  26052.14761350  .00034561  00000-0  64189-3 0  9991
2 61773  97.3114 286.1039 0009336   7.6220 352.5171 15.48803488116425
SITRO-AIS-46
1 61774U 24199AR  26052.10444339  .00036929  00000-0  66424-3 0  9997
2 61774  97.3105 286.2857 0009162   8.5758 351.5648 15.49708388116431
CSTP-2.2
1 61775U 24199AS  26052.09824120  .00014911  00000-0  36775-3 0  9999
2 61775  97.3171 284.1350 0015835 346.3778  13.7038 15.40510076116277
SITRO-AIS-40
1 61776U 24199AT  26052.09832190  .00035308  00000-0  63216-3 0  9999
2 61776  97.3110 286.2968 0009151   7.2105 352.9276 15.49849226119580
CSTP-2.1
1 61777U 24199AU  26052.13197962  .00009842  00000-0  23799-3 0  9992
2 61777  97.3172 284.2346 0015527 348.5155  11.5735 15.41221919116284
SITRO-AIS-39
1 61778U 24199AV  26052.10987308  .00034748  00000-0  65823-3 0  9998
2 61778  97.3112 285.8417 0009604   8.6772 351.4642 15.48231978116403
ALTAIR (RS65S)
1 61779U 24199AW  26052.14116507  .00010141  00000-0  30447-3 0  9993
2 61779  97.3201 282.3265 0013914  10.2823 349.8702 15.34536407119301
SITRO-AIS-37
1 61780U 24199AX  26052.04771399  .00034954  00000-0  64812-3 0  9991
2 61780  97.3118 285.9762 0009772   8.4466 351.6948 15.48844011116409
ASRTU-1 (RS64S/BJ2CR/AO-123)
1 61781U 24199AY  26052.04583472  .00009275  00000-0  28619-3 0  9998
2 61781  97.3175 281.7874 0014613  12.1585 348.0008 15.33683833116117
TUSUR GO (RS78S)
1 61782U 24199AZ  26052.10484887  .00112622  00000-0  10952-2 0  9997
2 61782  97.3058 289.2355 0006588 358.7521   1.3722 15.65906138116625
SAMSAT-IONOSPHERE (RS75S)
1 61784U 24199BB  26052.13080347  .00034193  00000-0  65016-3 0  9993
2 61784  97.3142 285.9813 0010666 359.7235   0.4008 15.48115529119557
RTU MIREA-1 (RS51S)
1 61785U 24199BC  26052.14816936  .00037477  00000-0  67059-3 0  9993
2 61785  97.3131 286.3993 0010291 357.9221   2.1986 15.49841732116430
SITRO-AIS-38
1 61786U 24199BD  26052.09345369  .00015485  00000-0  34101-3 0  9992
2 61786  97.3132 285.4495 0010534   2.6118 357.5184 15.43978715116374
2024-199BE (? SWSU-60)
1 61787U 24199BE  26052.11542795  .00010044  00000-0  30512-3 0  9996
2 61787  97.3185 282.0307 0014446  10.7738 349.3812 15.34160487119281
SITRO-AIS-45
1 61788U 24199BF  26052.14468064  .00034148  00000-0  64209-3 0  9997
2 61788  97.3108 285.9201 0009602   8.4684 351.6727 15.48449154116390
SITRO-AIS-17
1 61789U 24199BG  26052.10510473  .00003071  00000-0  26956-3 0  9994
2 61789  97.3316 258.8852 0007529 104.8989 255.3068 14.97258098114662
SITRO-AIS-18
1 61790U 24199BH  26052.11514058  .00003527  00000-0  30923-3 0  9995
2 61790  97.3318 258.8525 0007777 102.4304 257.7790 14.97219053114669
INNOCUBE (TUBSAT-31)
1 62616U 25009H   26051.79741942  .00007312  00000-0  29917-3 0  9998
2 62616  97.3980 133.1335 0006635  35.7294 324.4387 15.24608973 61078
OTP-2
1 63235U 25052AB  26051.68153619  .00008528  00000-0  37535-3 0  9995
2 63235  97.4009 305.9009 0005496 196.3939 163.7121 15.22081527 52135
HADES-ICM (SO-125)
1 63492U 25052BN  26052.15298887  .00108661  00000-0  17690-2 0  9998
2 63492  97.3984 312.0575 0006529 148.6389 211.5254 15.52247205 52572
IONOSFERA-M 03
1 64876U 25155A   26052.17388192  .00000062  00000-0  47863-4 0  9993
2 64876  98.5893  17.0859 0001403 144.4574 215.6698 14.21461908 29927
IONOSFERA-M 04
1 64877U 25155B   26052.20888191  .00000067  00000-0  50177-4 0  9999
2 64877  98.5889  17.0386 0001253 117.5079 242.6226 14.21463543 29926
INNOSAT16 (RS92S7)
1 64878U 25155C   26051.90822923  .00007300  00000-0  30503-3 0  9994
2 64878  97.4441  19.6272 0009029 227.9707 132.0763 15.23885820 62951
GEOSCAN-6 (RS92S6)
1 64879U 25155D   26051.94730474  .00010630  00000-0  39765-3 0  9997
2 64879  97.4440  20.3560 0006394 215.1836 144.8981 15.27486369 63003
GEOSCAN 1 (RS92S1)
1 64880U 25155E   26051.92204167  .00012669  00000-0  46778-3 0  9998
2 64880  97.4439  20.3946 0006264 215.7357 144.3463 15.27873121 63007
239ALFEROV (RS61S)
1 64881U 25155F   26051.89818447  .00013995  00000-0  49515-3 0  9992
2 64881  97.4445  20.6062 0005832 212.8989 147.1889 15.29254692 63018
CSTP-4.3
1 64882U 25155G   26051.95526558  .00009727  00000-0  36792-3 0  9990
2 64882  97.4462  20.3889 0005900 215.7516 144.3329 15.27146913 63007
CSTP-4.2
1 64883U 25155H   26051.95541933  .00009780  00000-0  36958-3 0  9998
2 64883  97.4455  20.3765 0006033 211.9265 148.1609 15.27176679 63005
CSTP-4.4
1 64884U 25155J   26052.08573323  .00010040  00000-0  37931-3 0  9995
2 64884  97.4450  20.5094 0006606 207.9743 152.1142 15.27174740 63026
